{
  "type": "FeatureCollection",
  "name": "Arabian_Sea_Slick_Detection_001",
  "crs": { "type": "name", "properties": { "name": "urn:ogc:def:crs:OGC:1.3:CRS84" } },
  "features": [
    {
      "type": "Feature",
      "properties": {
        "detection_id": "spill_001",
        "scene_id": "S1A_IW_GRDH_1SDV_20260914T012845",
        "satellite": "Sentinel-1A SAR",
        "acquisition_time": "2026-09-14T01:28:45Z",
        "area_sqkm": 14.85,
        "perimeter_km": 28.4,
        "estimated_volume_m3": 420.0,
        "estimated_age_hours": 18.5,
        "confidence_score": 0.94,
        "region": "Offshore Mumbai High, Arabian Sea",
        "source_confidence": "HIGH"
      },
      "geometry": {
        "type": "Polygon",
        "coordinates": [
          [
            [72.320, 19.110],
            [72.355, 19.135],
            [72.410, 19.145],
            [72.470, 19.140],
            [72.485, 19.120],
            [72.440, 19.095],
            [72.370, 19.085],
            [72.320, 19.110]
          ]
        ]
      }
    },
    {
      "type": "Feature",
      "properties": {
        "detection_id": "spill_002",
        "scene_id": "S1B_IW_GRDH_1SDV_20260913T134210",
        "satellite": "Sentinel-1B SAR",
        "acquisition_time": "2026-09-13T13:42:10Z",
        "area_sqkm": 6.2,
        "perimeter_km": 14.1,
        "estimated_volume_m3": 150.0,
        "estimated_age_hours": 9.0,
        "confidence_score": 0.88,
        "region": "Goa Offshore Shipping Lane, Arabian Sea",
        "source_confidence": "MEDIUM"
      },
      "geometry": {
        "type": "Polygon",
        "coordinates": [
          [
            [73.120, 15.650],
            [73.150, 15.670],
            [73.190, 15.665],
            [73.175, 15.640],
            [73.135, 15.635],
            [73.120, 15.650]
          ]
        ]
      }
    }
  ]
}
